{"type":"FeatureCollection","features":[{"type":"Feature","id":"way/72434082","geometry":{"type":"LineString","coordinates":[[4.8376941,44.126313],[4.8377167,44.1262231],[4.8377414,44.126122],[4.8378873,44.1255972],[4.8379169,44.1254723],[4.8379429,44.125345],[4.8379555,44.1250615],[4.8379666,44.1247969],[4.8379504,44.1245304],[4.8379367,44.1241229],[4.8378709,44.1237184],[4.8378218,44.1234361],[4.8377467,44.123016],[4.8377136,44.1227043],[4.837708,44.1225977],[4.8376952,44.1225143]]},"properties":{"check_date":"2026-02-07","highway":"construction","name":"D\u00e9viation Orange","source":"CCPOP 2025","osm_type":"way","osm_id":72434082,"@id":"way/72434082","road_status":"construction"}},{"type":"Feature","id":"way/80507969","geometry":{"type":"LineString","coordinates":[[4.789868,43.913837],[4.7921048,43.913621],[4.7943445,43.9133725],[4.794891,43.9133159],[4.7980448,43.9129209],[4.8074886,43.9118559],[4.8091085,43.9115629],[4.810301,43.9110117],[4.8117417,43.9102469],[4.8128102,43.9097751],[4.8138855,43.9096261],[4.8155261,43.9097553],[4.8170702,43.9101078],[4.8181593,43.9105498],[4.8187824,43.9112399],[4.819899,43.9133346],[4.8210925,43.9143168],[4.823,43.9151881],[4.8239501,43.9155134],[4.825012,43.915707],[4.8260882,43.9156519],[4.8294194,43.9152825],[4.8305331,43.9153426],[4.8315043,43.9155032],[4.8327854,43.9161453],[4.8343008,43.9165694],[4.8356831,43.9166534],[4.8390892,43.9168213],[4.8400218,43.9169978],[4.8414048,43.9175073],[4.8424875,43.918142],[4.8432027,43.9187283],[4.8437993,43.9196392],[4.8450003,43.9214243],[4.8455193,43.9222343],[4.8463492,43.9235282],[4.8468633,43.9240071],[4.8474445,43.9242929],[4.8485901,43.9245384],[4.8501229,43.9246168]]},"properties":{"highway":"proposed","name":"LEO (Liaison Est Ouest)","oneway":"yes","proposed":"trunk","osm_type":"way","osm_id":80507969,"@id":"way/80507969","road_status":"proposed"}},{"type":"Feature","id":"way/154817494","geometry":{"type":"LineString","coordinates":[[4.9166346,43.8907185],[4.9166863,43.8907761],[4.9167549,43.8908373],[4.9168184,43.8908829],[4.9169127,43.8909363],[4.9170597,43.8909812],[4.9171539,43.8909992],[4.917232,43.8910088],[4.9173219,43.8910097],[4.9174231,43.8910053],[4.9175244,43.8909899],[4.917631,43.8909652],[4.9177122,43.8909274]]},"properties":{"construction":"primary_link","highway":"construction","oneway":"yes","opening_date":"2026-12-31","osm_type":"way","osm_id":154817494,"@id":"way/154817494","road_status":"construction"}},{"type":"Feature","id":"way/163563465","geometry":{"type":"LineString","coordinates":[[4.8368258,44.1291652],[4.8369311,44.1288599],[4.8376918,44.1263331]]},"properties":{"check_date":"2026-02-07","highway":"construction","name":"D\u00e9viation Orange","operator":"CD84","ref":"D 975","osm_type":"way","osm_id":163563465,"@id":"way/163563465","road_status":"construction"}},{"type":"Feature","id":"way/163563831","geometry":{"type":"LineString","coordinates":[[4.8372551,44.1339467],[4.8374347,44.1348042],[4.8375866,44.135958],[4.8375603,44.1365927],[4.8372392,44.1379514],[4.8365277,44.1393942],[4.8359933,44.1401656],[4.8356173,44.1407399],[4.8352174,44.141414],[4.8348291,44.1420623],[4.8327353,44.1454189],[4.8326116,44.1456108]]},"properties":{"check_date":"2025-02-05","highway":"construction","name":"D\u00e9viation Orange","opening_date":"2026-10-01","operator":"CD84","ref":"D 075","source":"Mairie d'Orange 2013","osm_type":"way","osm_id":163563831,"@id":"way/163563831","road_status":"construction"}},{"type":"Feature","id":"way/205458351","geometry":{"type":"LineString","coordinates":[[4.8420055,44.1187286],[4.8424978,44.1187411],[4.8425407,44.1195075],[4.8427982,44.1196115],[4.8430933,44.1199427],[4.8432084,44.1200165]]},"properties":{"highway":"proposed","note":"Liaison Rue d'Autriche-Rue d'Italie","source":"Mairie d'Orange 2013","osm_type":"way","osm_id":205458351,"@id":"way/205458351","road_status":"proposed"}},{"type":"Feature","id":"way/207589912","geometry":{"type":"LineString","coordinates":[[4.7587617,43.951536],[4.7588487,43.9513157],[4.7596244,43.9503369],[4.7597081,43.9494635],[4.7589185,43.9484642],[4.7581028,43.9474628],[4.7568687,43.9459719],[4.7567566,43.9454878],[4.7565131,43.9444358],[4.7568478,43.94299],[4.7578099,43.9414538],[4.7592532,43.9397217],[4.7649353,43.9334176],[4.7686405,43.930181],[4.7691554,43.9297861]]},"properties":{"highway":"proposed","name":"LEO tranche 3","proposed":"primary","wikipedia":"fr:Liaison Est-Ouest d'Avignon","osm_type":"way","osm_id":207589912,"@id":"way/207589912","road_status":"proposed"}},{"type":"Feature","id":"way/231769611","geometry":{"type":"LineString","coordinates":[[4.9160771,43.8920384],[4.9161945,43.8916381],[4.9162391,43.8914417]]},"properties":{"construction":"primary_link","highway":"construction","oneway":"yes","opening_date":"2026-12-31","osm_type":"way","osm_id":231769611,"@id":"way/231769611","road_status":"construction"}},{"type":"Feature","id":"way/231769616","geometry":{"type":"LineString","coordinates":[[4.9199291,43.8893587],[4.9198392,43.8893819],[4.9196514,43.8894593],[4.9194396,43.8895733],[4.918777,43.8897956],[4.9182647,43.889929],[4.9176371,43.8900836],[4.9172938,43.8901532],[4.9169451,43.8902073],[4.9167976,43.8902228],[4.9165454,43.8902421],[4.9163792,43.8902499],[4.9162477,43.8902499],[4.9160063,43.8902441],[4.9158186,43.8902325],[4.9152923,43.8902402],[4.9148482,43.8902347],[4.9146518,43.8902056]]},"properties":{"construction":"primary","highway":"construction","layer":"-1","opening_date":"2026-12-31","osm_type":"way","osm_id":231769616,"@id":"way/231769616","road_status":"construction"}},{"type":"Feature","id":"way/531238307","geometry":{"type":"LineString","coordinates":[[4.7551717,44.2939669],[4.7541424,44.2938963]]},"properties":{"highway":"proposed","proposed":"footway","source":"CCRLP","osm_type":"way","osm_id":531238307,"@id":"way/531238307","road_status":"proposed"}},{"type":"Feature","id":"way/535169687","geometry":{"type":"LineString","coordinates":[[4.7550683,44.2940805],[4.7545397,44.2940203],[4.7542759,44.2943545]]},"properties":{"highway":"proposed","proposed":"service","source":"local_knowledge","osm_type":"way","osm_id":535169687,"@id":"way/535169687","road_status":"proposed"}},{"type":"Feature","id":"way/894342553","geometry":{"type":"LineString","coordinates":[[4.8625073,43.9137324],[4.859115,43.9146427]]},"properties":{"construction":"path","description":"totally grown with plants. Not usable. Seasonal?","highway":"construction","name":"Chemin de la Grande Chauss\u00e9e","tracktype":"grade2","osm_type":"way","osm_id":894342553,"@id":"way/894342553","road_status":"construction"}},{"type":"Feature","id":"way/1048300612","geometry":{"type":"LineString","coordinates":[[4.7860344,43.9266104],[4.7862267,43.9265973],[4.7881047,43.9264691],[4.7882203,43.9264612]]},"properties":{"highway":"proposed","name":"Rue Aung San Suu Kyi","short_name":"Rue A. Suu Kyi","source":"Mairie Avignon","osm_type":"way","osm_id":1048300612,"@id":"way/1048300612","road_status":"proposed"}},{"type":"Feature","id":"way/1204420740","geometry":{"type":"LineString","coordinates":[[4.871662,43.9216508],[4.8723989,43.923248],[4.87248,43.9233287],[4.8725896,43.923387],[4.8727444,43.9234093],[4.872785,43.9234437],[4.8727945,43.9234986],[4.8727039,43.9247171],[4.872661,43.9254963],[4.872661,43.9255975],[4.8726992,43.9256662],[4.872723,43.9257262],[4.8726706,43.926332],[4.8726563,43.9265071],[4.8726277,43.9265311],[4.8725252,43.9265689],[4.8725014,43.9266238],[4.8725014,43.9267594],[4.8724752,43.9272056],[4.8724776,43.9273738],[4.8724323,43.9274287],[4.8724251,43.9274681],[4.8724683,43.9275314]]},"properties":{"construction":"cycleway","highway":"construction","osm_type":"way","osm_id":1204420740,"@id":"way/1204420740","road_status":"construction"}},{"type":"Feature","id":"way/1204420746","geometry":{"type":"LineString","coordinates":[[4.8725398,43.9317777],[4.8723615,43.9320017],[4.8720696,43.9321906],[4.8720175,43.9323519],[4.8719793,43.9326847],[4.8719654,43.9327873],[4.8719359,43.9328848],[4.8717552,43.9332789],[4.8716249,43.9333552]]},"properties":{"construction":"minor","highway":"construction","osm_type":"way","osm_id":1204420746,"@id":"way/1204420746","road_status":"construction"}},{"type":"Feature","id":"way/1204420751","geometry":{"type":"LineString","coordinates":[[4.865595,43.9433031],[4.8659782,43.9428428],[4.866276,43.9424963],[4.8668609,43.9418511],[4.8673244,43.941369],[4.8680726,43.9408303],[4.8686517,43.9404271],[4.8691377,43.9401371],[4.8695047,43.9399432],[4.869936,43.9395349],[4.8700623,43.9393496],[4.8700861,43.939178],[4.8701028,43.9387713],[4.8700766,43.9383922],[4.8698812,43.9378122],[4.8695875,43.9371062],[4.8695702,43.937016],[4.8695844,43.9369286],[4.869586,43.9368724],[4.8696359,43.9363533],[4.8696592,43.9359915],[4.8694667,43.935916],[4.8695705,43.9358124],[4.8697349,43.935726],[4.8698495,43.9356045],[4.8698625,43.9355562],[4.8697219,43.9355282],[4.8697333,43.9355053]]},"properties":{"construction":"cycleway","highway":"construction","osm_type":"way","osm_id":1204420751,"@id":"way/1204420751","road_status":"construction"}},{"type":"Feature","id":"way/1217373545","geometry":{"type":"LineString","coordinates":[[4.910726,43.8907266],[4.9105862,43.8908051],[4.910422,43.8909042],[4.9098132,43.8913118],[4.9095925,43.8914381],[4.909396,43.8915377],[4.9091265,43.8916619],[4.9088565,43.8917744],[4.9085893,43.8918629],[4.9084046,43.8919192],[4.9082088,43.891974],[4.9079989,43.8920244],[4.9077867,43.8920678],[4.9075425,43.892111],[4.9072516,43.8921572],[4.906858,43.8922119]]},"properties":{"check_date":"2026-06-29","construction":"primary","highway":"construction","lanes":"2","layer":"1","maxspeed":"90","name":"Route de Marseille","old_ref":"N 7","oneway":"yes","ref":"D 907","surface":"asphalt","osm_type":"way","osm_id":1217373545,"@id":"way/1217373545","road_status":"construction"}},{"type":"Feature","id":"way/1217373546","geometry":{"type":"LineString","coordinates":[[4.906858,43.8922119],[4.9064684,43.8922724],[4.9062381,43.8923114],[4.9059443,43.8923686]]},"properties":{"check_date":"2026-06-29","construction":"primary","highway":"construction","lanes":"3","maxspeed":"90","name":"Route de Marseille","old_ref":"N 7","oneway":"yes","ref":"D 907","surface":"asphalt","turn:lanes":"through|through|sharp_right","osm_type":"way","osm_id":1217373546,"@id":"way/1217373546","road_status":"construction"}},{"type":"Feature","id":"way/1256869514","geometry":{"type":"LineString","coordinates":[[4.8370747,44.1332458],[4.8369433,44.1326457],[4.8368916,44.1321737],[4.836906,44.1312977]]},"properties":{"highway":"construction","opening_date":"2026-10-01","operator":"CD84","ref":"D 975","osm_type":"way","osm_id":1256869514,"@id":"way/1256869514","road_status":"construction"}},{"type":"Feature","id":"way/1256869515","geometry":{"type":"LineString","coordinates":[[4.8372551,44.1339467],[4.8370747,44.1332458]]},"properties":{"bridge":"yes","highway":"construction","layer":"1","opening_date":"2026-10-01","operator":"CD84","ref":"D 975","osm_type":"way","osm_id":1256869515,"@id":"way/1256869515","road_status":"construction"}},{"type":"Feature","id":"way/1266118012","geometry":{"type":"LineString","coordinates":[[5.4941763,43.6709707],[5.494201,43.6708397],[5.4942246,43.6707772],[5.4942668,43.6707147],[5.4943656,43.6706165],[5.4944808,43.6705242],[5.4945537,43.6704826],[5.4946372,43.6704528],[5.4947422,43.6704293],[5.4948718,43.6704141],[5.4949807,43.6704125],[5.4951146,43.67042],[5.4952822,43.6704565],[5.4953944,43.6704885],[5.4954884,43.6705225]]},"properties":{"construction":"primary","highway":"construction","name":"Rocade Jean Garcin","ref":"D 973","osm_type":"way","osm_id":1266118012,"@id":"way/1266118012","road_status":"construction"}},{"type":"Feature","id":"way/1266118013","geometry":{"type":"LineString","coordinates":[[5.4941763,43.6709707],[5.4942175,43.6711102],[5.4942463,43.6711627],[5.4942751,43.6711999],[5.4943265,43.6712396],[5.4944026,43.6712832],[5.4945508,43.6713279],[5.4946948,43.6713368],[5.4948594,43.671307],[5.4950323,43.6712356],[5.4952599,43.6710867]]},"properties":{"construction":"trunk_link","highway":"construction","name":"Rocade Jean Garcin","oneway":"yes","ref":"D 973","osm_type":"way","osm_id":1266118013,"@id":"way/1266118013","road_status":"construction"}},{"type":"Feature","id":"way/1275517411","geometry":{"type":"LineString","coordinates":[[5.4695493,43.6969659],[5.4693368,43.6969867],[5.4683606,43.6969678],[5.4663473,43.6970144],[5.4606832,43.6970909],[5.4586593,43.6969523]]},"properties":{"construction":"trunk","highway":"construction","osm_type":"way","osm_id":1275517411,"@id":"way/1275517411","road_status":"construction"}},{"type":"Feature","id":"way/1356898021","geometry":{"type":"LineString","coordinates":[[4.8368072,44.1297015],[4.836906,44.1312977]]},"properties":{"check_date":"2025-02-05","highway":"construction","opening_date":"2026-10-01","operator":"CD84","ref":"D 975","osm_type":"way","osm_id":1356898021,"@id":"way/1356898021","road_status":"construction"}},{"type":"Feature","id":"way/1388162163","geometry":{"type":"LineString","coordinates":[[4.8371576,44.1192847],[4.8371503,44.1194566],[4.8371723,44.1196292],[4.8372097,44.1199786],[4.8373025,44.120518],[4.8375178,44.121567],[4.8376406,44.122071],[4.8376862,44.1223704],[4.8376952,44.1225143]]},"properties":{"check_date":"2026-02-07","highway":"construction","name":"D\u00e9viation Orange","opening_date":"2027-01-01","operator":"CD84","source":"CCPOP 2025","osm_type":"way","osm_id":1388162163,"@id":"way/1388162163","road_status":"construction"}},{"type":"Feature","id":"way/1388162169","geometry":{"type":"LineString","coordinates":[[4.8326116,44.1456108],[4.8325613,44.1457032]]},"properties":{"highway":"construction","operator":"CD84","ref":"D 075","osm_type":"way","osm_id":1388162169,"@id":"way/1388162169","road_status":"construction"}},{"type":"Feature","id":"way/1421522832","geometry":{"type":"LineString","coordinates":[[5.0406365,44.0536921],[5.0405464,44.0536684],[5.0403846,44.0536063],[5.0401501,44.0535094],[5.039977,44.0534449],[5.0396526,44.0533161],[5.0394349,44.0532305],[5.039203,44.0531246],[5.0390006,44.0530355],[5.0389024,44.0529924],[5.0387479,44.0529021],[5.0386174,44.0528233],[5.0385263,44.0527705],[5.0383813,44.052684],[5.0382543,44.0525992],[5.038119,44.0525127],[5.0379873,44.0524323],[5.037876,44.0523682],[5.0377342,44.0522764],[5.0375663,44.052169],[5.0374283,44.0520787],[5.0373101,44.0519904],[5.037154,44.051888],[5.0370186,44.0517964],[5.0368897,44.0517118],[5.0367449,44.0516225],[5.0366482,44.0515552],[5.0365157,44.0514633],[5.0363467,44.0513557],[5.0362208,44.0512698],[5.0360611,44.0511607],[5.0359313,44.051061],[5.0358264,44.050986],[5.035725,44.0509154],[5.0356033,44.050822],[5.0354653,44.0507125],[5.0352947,44.0505699],[5.0351682,44.0504674],[5.035043,44.0503587],[5.0348357,44.0501955],[5.0346654,44.050063],[5.034456,44.0498945],[5.0342535,44.0497392],[5.0341361,44.0496587],[5.0339967,44.0495534],[5.0338998,44.0494828],[5.0337393,44.0493506],[5.0336108,44.0492528],[5.0334802,44.0491615],[5.0333033,44.0490225],[5.0330638,44.0488287],[5.0328268,44.0486391],[5.0326578,44.0485011],[5.0325312,44.0484191]]},"properties":{"highway":"proposed","oneway":"no","proposed":"cycleway","osm_type":"way","osm_id":1421522832,"@id":"way/1421522832","road_status":"proposed"}},{"type":"Feature","id":"way/1421814158","geometry":{"type":"LineString","coordinates":[[5.4942408,43.6723952],[5.4943325,43.6719557],[5.4943245,43.671819],[5.4943097,43.6717101],[5.4942612,43.6715114],[5.4941763,43.6711999],[5.494167,43.6710932],[5.4941763,43.6709707]]},"properties":{"construction":"trunk_link","highway":"construction","name":"Rocade Jean Garcin","oneway":"yes","ref":"D 973","osm_type":"way","osm_id":1421814158,"@id":"way/1421814158","road_status":"construction"}},{"type":"Feature","id":"way/1421814159","geometry":{"type":"LineString","coordinates":[[5.4959152,43.6706768],[5.4960199,43.6707147],[5.4961598,43.6707445],[5.4963276,43.6707624],[5.4966238,43.6707775]]},"properties":{"construction":"primary","highway":"construction","name":"Rocade Jean Garcin","ref":"D 973","osm_type":"way","osm_id":1421814159,"@id":"way/1421814159","road_status":"construction"}},{"type":"Feature","id":"way/1421814160","geometry":{"type":"LineString","coordinates":[[5.4954884,43.6705225],[5.4959152,43.6706768]]},"properties":{"bridge":"yes","construction":"primary","highway":"construction","layer":"1","name":"Rocade Jean Garcin","ref":"D 973","osm_type":"way","osm_id":1421814160,"@id":"way/1421814160","road_status":"construction"}},{"type":"Feature","id":"way/1459584462","geometry":{"type":"LineString","coordinates":[[4.9059443,43.8923686],[4.9056796,43.8924282],[4.9054523,43.8924838],[4.9050776,43.8925896],[4.9047154,43.8927073]]},"properties":{"check_date":"2026-06-29","construction":"primary","cycleway:both":"no","highway":"construction","lanes":"2","maxspeed":"90","name":"Route de Marseille","old_ref":"N 7","oneway":"yes","ref":"D 907","surface":"asphalt","osm_type":"way","osm_id":1459584462,"@id":"way/1459584462","road_status":"construction"}},{"type":"Feature","id":"way/1459584463","geometry":{"type":"LineString","coordinates":[[4.9047094,43.8926111],[4.905265,43.8924374],[4.9057531,43.8923136],[4.9061113,43.8922401],[4.9064904,43.8921771],[4.9066707,43.8921476],[4.907314,43.8920543],[4.9076559,43.891996],[4.9079262,43.8919412],[4.9081793,43.8918844],[4.9084331,43.8918127],[4.908688,43.8917287],[4.9089742,43.8916223],[4.9092199,43.891513],[4.9094825,43.8913797],[4.9096896,43.8912658]]},"properties":{"check_date":"2026-06-29","construction":"primary","highway":"construction","lanes":"2","layer":"1","maxspeed":"90","name":"Route de Marseille","old_ref":"N 7","oneway":"yes","ref":"D 907","surface":"asphalt","osm_type":"way","osm_id":1459584463,"@id":"way/1459584463","road_status":"construction"}},{"type":"Feature","id":"way/1459584465","geometry":{"type":"LineString","coordinates":[[4.9096896,43.8912658],[4.9105757,43.8906953]]},"properties":{"check_date":"2026-06-29","construction":"primary","highway":"construction","lanes":"2","mapillary":"467327091253677","name":"Route de Marseille","old_ref":"N 7","oneway":"yes","ref":"D 907","smoothness":"good","surface":"asphalt","osm_type":"way","osm_id":1459584465,"@id":"way/1459584465","road_status":"construction"}},{"type":"Feature","id":"way/1465282086","geometry":{"type":"LineString","coordinates":[[5.4952599,43.6710867],[5.4954421,43.6709071],[5.4961353,43.6700626],[5.4962545,43.669886],[5.4962993,43.6698009],[5.4963633,43.669662],[5.4964339,43.6694813],[5.4964792,43.6693381],[5.4965337,43.6691189]]},"properties":{"construction":"trunk","highway":"construction","name":"Rocade Jean Garcin","oneway":"yes","ref":"D 973","osm_type":"way","osm_id":1465282086,"@id":"way/1465282086","road_status":"construction"}},{"type":"Feature","id":"way/1482337576","geometry":{"type":"LineString","coordinates":[[4.8264743,44.1461195],[4.8265685,44.1460101],[4.8266419,44.145892],[4.8264597,44.1458126],[4.8255882,44.1454438],[4.8256083,44.1453409],[4.8256901,44.1450069],[4.8263754,44.1451022],[4.8267684,44.1451831],[4.8267818,44.1452706],[4.8267147,44.1458153],[4.8266419,44.145892]]},"properties":{"highway":"construction","osm_type":"way","osm_id":1482337576,"@id":"way/1482337576","road_status":"construction"}},{"type":"Feature","id":"way/1482337577","geometry":{"type":"LineString","coordinates":[[4.8266419,44.145892],[4.8267536,44.1459164],[4.8269776,44.1460761]]},"properties":{"highway":"construction","osm_type":"way","osm_id":1482337577,"@id":"way/1482337577","road_status":"construction"}},{"type":"Feature","id":"way/1489709340","geometry":{"type":"LineString","coordinates":[[4.9127698,43.8900415],[4.9128829,43.8900198],[4.9129768,43.890016],[4.9131082,43.8900169],[4.9132235,43.8900324],[4.9133067,43.8900537],[4.9134381,43.8901049],[4.9136386,43.89016],[4.9137184,43.8901754],[4.9138525,43.8901827],[4.9139874,43.890179]]},"properties":{"construction":"primary","highway":"construction","oneway":"yes","opening_date":"2026-12-31","osm_type":"way","osm_id":1489709340,"@id":"way/1489709340","road_status":"construction"}},{"type":"Feature","id":"way/1489709341","geometry":{"type":"LineString","coordinates":[[4.9127542,43.8899562],[4.912907,43.8899029],[4.9129781,43.8898855],[4.913068,43.8898932],[4.9132504,43.8899242],[4.9134267,43.8899739],[4.9135642,43.8900372],[4.9136377,43.8900831]]},"properties":{"construction":"primary","highway":"construction","oneway":"yes","opening_date":"2026-12-31","osm_type":"way","osm_id":1489709341,"@id":"way/1489709341","road_status":"construction"}},{"type":"Feature","id":"way/1489709342","geometry":{"type":"LineString","coordinates":[[4.9154442,43.8900315],[4.9156643,43.8899396],[4.9161632,43.8897115],[4.9164516,43.8895462],[4.9165629,43.8894844],[4.9166232,43.8894283],[4.9166527,43.889381],[4.916669,43.8893197]]},"properties":{"construction":"primary_link","highway":"construction","oneway":"yes","opening_date":"2026-12-31","osm_type":"way","osm_id":1489709342,"@id":"way/1489709342","road_status":"construction"}},{"type":"Feature","id":"way/1489709343","geometry":{"type":"LineString","coordinates":[[4.9172729,43.8897448],[4.9171154,43.8898343],[4.9170658,43.8898681],[4.9170309,43.8899155],[4.9170202,43.8899638],[4.9170269,43.8900092],[4.9170685,43.8900585],[4.9171449,43.8900894],[4.9172455,43.8901049],[4.9173971,43.890102],[4.9176371,43.8900836]]},"properties":{"construction":"primary_link","highway":"construction","oneway":"yes","opening_date":"2026-12-31","osm_type":"way","osm_id":1489709343,"@id":"way/1489709343","road_status":"construction"}},{"type":"Feature","id":"way/1489709344","geometry":{"type":"LineString","coordinates":[[4.9177122,43.8909274],[4.9177906,43.8908543],[4.9178597,43.8907689],[4.9179187,43.8906635],[4.9179456,43.8905553],[4.9179295,43.8904722],[4.9178597,43.890389],[4.917739,43.8903233],[4.9175915,43.8902808],[4.9174252,43.8902576],[4.917224,43.8902363],[4.9169451,43.8902073]]},"properties":{"construction":"primary_link","highway":"construction","oneway":"yes","opening_date":"2026-12-31","osm_type":"way","osm_id":1489709344,"@id":"way/1489709344","road_status":"construction"}},{"type":"Feature","id":"way/1489709345","geometry":{"type":"LineString","coordinates":[[4.9194396,43.8895733],[4.9191391,43.8897937],[4.9190721,43.8899],[4.9189702,43.890045],[4.9188763,43.8901532],[4.9187341,43.89036],[4.9186939,43.8904625],[4.9186025,43.8905922]]},"properties":{"construction":"primary_link","highway":"construction","oneway":"yes","opening_date":"2026-12-31","osm_type":"way","osm_id":1489709345,"@id":"way/1489709345","road_status":"construction"}},{"type":"Feature","id":"way/1489709346","geometry":{"type":"LineString","coordinates":[[4.9199498,43.8888356],[4.9200804,43.8888615],[4.9202229,43.8888994],[4.9203144,43.8889169]]},"properties":{"construction":"residential","highway":"construction","oneway":"yes","opening_date":"2026-12-31","osm_type":"way","osm_id":1489709346,"@id":"way/1489709346","road_status":"construction"}},{"type":"Feature","id":"way/1489709347","geometry":{"type":"LineString","coordinates":[[4.9205167,43.8889536],[4.9207001,43.8889326],[4.9208876,43.8889262],[4.9211735,43.8889062]]},"properties":{"construction":"primary_link","highway":"construction","oneway":"yes","opening_date":"2026-12-31","osm_type":"way","osm_id":1489709347,"@id":"way/1489709347","road_status":"construction"}},{"type":"Feature","id":"way/1489709348","geometry":{"type":"LineString","coordinates":[[4.9206919,43.8893382],[4.9208911,43.8894053],[4.9211146,43.8894334],[4.9212593,43.8894185],[4.9215429,43.8893585],[4.9216738,43.8893133],[4.9217926,43.8892614]]},"properties":{"construction":"residential","highway":"construction","opening_date":"2026-12-31","osm_type":"way","osm_id":1489709348,"@id":"way/1489709348","road_status":"construction"}},{"type":"Feature","id":"way/1489709349","geometry":{"type":"LineString","coordinates":[[4.9201152,43.8890112],[4.9201497,43.888978],[4.920193,43.8889506],[4.9202432,43.8889303],[4.9202982,43.888918],[4.9203144,43.8889169],[4.9203555,43.8889142],[4.9204127,43.8889191],[4.9204672,43.8889324],[4.9205167,43.8889536],[4.920559,43.8889818],[4.9205922,43.8890157],[4.920615,43.8890538],[4.9206262,43.8890945],[4.9206255,43.889136],[4.9206128,43.8891765],[4.9205887,43.8892142],[4.9205542,43.8892474],[4.9205109,43.8892748],[4.9204607,43.8892951],[4.9204057,43.8893074],[4.9203483,43.8893112],[4.9202912,43.8893063],[4.9202366,43.889293],[4.9201872,43.8892717],[4.9201449,43.8892436],[4.9201116,43.8892097],[4.9200889,43.8891716],[4.9200777,43.8891309],[4.9200784,43.8890894],[4.9200911,43.8890489],[4.9201152,43.8890112]]},"properties":{"construction":"primary","highway":"construction","oneway":"yes","opening_date":"2026-12-31","osm_type":"way","osm_id":1489709349,"@id":"way/1489709349","road_status":"construction"}},{"type":"Feature","id":"way/1552241021","geometry":{"type":"LineString","coordinates":[[4.9202366,43.889293],[4.9199291,43.8893587]]},"properties":{"construction":"primary","highway":"construction","layer":"-1","oneway":"yes","opening_date":"2026-12-31","osm_type":"way","osm_id":1552241021,"@id":"way/1552241021","road_status":"construction"}},{"type":"Feature","id":"way/1552241022","geometry":{"type":"LineString","coordinates":[[4.9199291,43.8893587],[4.9201116,43.8892097]]},"properties":{"construction":"primary","highway":"construction","layer":"-1","oneway":"yes","opening_date":"2026-12-31","osm_type":"way","osm_id":1552241022,"@id":"way/1552241022","road_status":"construction"}},{"type":"Feature","id":"way/1552241023","geometry":{"type":"LineString","coordinates":[[4.9201497,43.888978],[4.9201189,43.8889173],[4.9200665,43.8888867],[4.9200465,43.888875],[4.9199498,43.8888356]]},"properties":{"construction":"residential","highway":"construction","oneway":"yes","opening_date":"2026-12-31","osm_type":"way","osm_id":1552241023,"@id":"way/1552241023","road_status":"construction"}},{"type":"Feature","id":"way/1552241024","geometry":{"type":"LineString","coordinates":[[4.9211735,43.8889062],[4.9209036,43.8889689],[4.9207453,43.8889953],[4.9205922,43.8890157]]},"properties":{"construction":"primary_link","highway":"construction","oneway":"yes","opening_date":"2026-12-31","osm_type":"way","osm_id":1552241024,"@id":"way/1552241024","road_status":"construction"}},{"type":"Feature","id":"way/1552241027","geometry":{"type":"LineString","coordinates":[[4.9205887,43.8892142],[4.9206919,43.8893382]]},"properties":{"construction":"residential","highway":"construction","oneway":"yes","opening_date":"2026-12-31","osm_type":"way","osm_id":1552241027,"@id":"way/1552241027","road_status":"construction"}},{"type":"Feature","id":"way/1552241028","geometry":{"type":"LineString","coordinates":[[4.9206919,43.8893382],[4.9205109,43.8892748]]},"properties":{"construction":"residential","highway":"construction","oneway":"yes","opening_date":"2026-12-31","osm_type":"way","osm_id":1552241028,"@id":"way/1552241028","road_status":"construction"}},{"type":"Feature","id":"way/1552241030","geometry":{"type":"LineString","coordinates":[[4.9197252,43.8915751],[4.9204062,43.891451],[4.9206958,43.8911068],[4.9208283,43.8907138],[4.9209269,43.890152],[4.9211146,43.8894334]]},"properties":{"construction":"unclassified","highway":"construction","oneway":"yes","start_date":"2027","osm_type":"way","osm_id":1552241030,"@id":"way/1552241030","road_status":"construction"}},{"type":"Feature","id":"way/1552243759","geometry":{"type":"LineString","coordinates":[[4.9083348,43.8922837],[4.908236,43.8921121],[4.908008,43.8916706]]},"properties":{"construction":"unclassified","highway":"construction","layer":"-1","osm_type":"way","osm_id":1552243759,"@id":"way/1552243759","road_status":"construction"}},{"type":"Feature","id":"way/1552243760","geometry":{"type":"LineString","coordinates":[[4.9098132,43.8913118],[4.909149,43.8918563],[4.9083348,43.8922837]]},"properties":{"highway":"construction","oneway":"yes","osm_type":"way","osm_id":1552243760,"@id":"way/1552243760","road_status":"construction"}},{"type":"Feature","id":"way/1552243762","geometry":{"type":"LineString","coordinates":[[4.9083348,43.8922837],[4.9078846,43.892255],[4.9071544,43.892346],[4.9066029,43.8923682],[4.9062381,43.8923114]]},"properties":{"highway":"construction","oneway":"yes","osm_type":"way","osm_id":1552243762,"@id":"way/1552243762","road_status":"construction"}}],"_cache":{"generated_at":"2026-08-25T18:52:58.823479+00:00","endpoint":"https://overpass-api.de/api/interpreter","user_agent":"dataroads-FR84/0.17.4 (https://github.com/thepriben/dataroads-FR84)","source_format":"overpass-json","source_elements":56}}
