{"type":"FeatureCollection","features":[{"type":"Feature","id":"node/4854106563","geometry":{"type":"Point","coordinates":[4.921519,44.3971522]},"properties":{"highway":"rest_area","area_kind":"rest_area","osm_type":"node","osm_id":4854106563,"@id":"node/4854106563"}},{"type":"Feature","id":"node/5890690986","geometry":{"type":"Point","coordinates":[4.8460311,44.1112484]},"properties":{"description":"Aire de covoiturage informelle","amenity":"car_pooling","area_kind":"car_pooling","osm_type":"node","osm_id":5890690986,"@id":"node/5890690986"}},{"type":"Feature","id":"node/7001598023","geometry":{"type":"Point","coordinates":[4.890388,43.9789557]},"properties":{"access":"customers","covered":"no","amenity":"car_pooling","area_kind":"car_pooling","osm_type":"node","osm_id":7001598023,"@id":"node/7001598023"}},{"type":"Feature","id":"node/7001598024","geometry":{"type":"Point","coordinates":[4.89041,43.9789289]},"properties":{"access":"customers","covered":"no","amenity":"car_pooling","area_kind":"car_pooling","osm_type":"node","osm_id":7001598024,"@id":"node/7001598024"}},{"type":"Feature","id":"node/7001598025","geometry":{"type":"Point","coordinates":[4.8904244,43.9789076]},"properties":{"access":"customers","covered":"no","amenity":"car_pooling","area_kind":"car_pooling","osm_type":"node","osm_id":7001598025,"@id":"node/7001598025"}},{"type":"Feature","id":"node/9229519517","geometry":{"type":"Point","coordinates":[5.1555471,43.9988659]},"properties":{"highway":"rest_area","area_kind":"rest_area","osm_type":"node","osm_id":9229519517,"@id":"node/9229519517"}},{"type":"Feature","id":"node/11140849381","geometry":{"type":"Point","coordinates":[4.9582521,44.3102008]},"properties":{"highway":"rest_area","area_kind":"rest_area","osm_type":"node","osm_id":11140849381,"@id":"node/11140849381"}},{"type":"Feature","id":"node/11269048791","geometry":{"type":"Point","coordinates":[5.4119554,44.0948185]},"properties":{"name":"Aire de covoiturage de Sault","capacity":"4","amenity":"car_pooling","area_kind":"car_pooling","osm_type":"node","osm_id":11269048791,"@id":"node/11269048791"}},{"type":"Feature","id":"node/12749862158","geometry":{"type":"Point","coordinates":[4.8395027,44.1866082]},"properties":{"amenity":"car_pooling","area_kind":"car_pooling","osm_type":"node","osm_id":12749862158,"@id":"node/12749862158"}},{"type":"Feature","id":"node/12862578101","geometry":{"type":"Point","coordinates":[5.3181196,43.9887054]},"properties":{"name":"Arboretum de Saint Lambert","highway":"rest_area","area_kind":"rest_area","osm_type":"node","osm_id":12862578101,"@id":"node/12862578101"}},{"type":"Feature","id":"node/13056948814","geometry":{"type":"Point","coordinates":[4.7461221,44.1889155]},"properties":{"highway":"rest_area","area_kind":"rest_area","osm_type":"node","osm_id":13056948814,"@id":"node/13056948814"}},{"type":"Feature","id":"way/53208612","geometry":{"type":"Point","coordinates":[5.0510032,43.9926133]},"properties":{"amenity":"car_pooling","area_kind":"car_pooling","osm_type":"way","osm_id":53208612,"@id":"way/53208612"}},{"type":"Feature","id":"way/79057778","geometry":{"type":"Point","coordinates":[4.8228015,43.9544327]},"properties":{"name":"P+R Parking des Italiens Universit\u00e9","capacity":"1150","access":"yes","fee":"no","park_ride":"yes","surface":"asphalt","amenity":"parking","area_kind":"park_ride","osm_type":"way","osm_id":79057778,"@id":"way/79057778"}},{"type":"Feature","id":"way/88725309","geometry":{"type":"Point","coordinates":[4.786485,43.9205383]},"properties":{"name":"P3","access":"yes","fee":"yes","park_ride":"yes","description":"Parking v\u00e9hicules de location","amenity":"parking","area_kind":"park_ride","osm_type":"way","osm_id":88725309,"@id":"way/88725309"}},{"type":"Feature","id":"way/88725310","geometry":{"type":"Point","coordinates":[4.7854423,43.923191]},"properties":{"name":"P0 - Courte dur\u00e9e","access":"customers","fee":"yes","park_ride":"yes","surface":"asphalt","lit":"yes","amenity":"parking","area_kind":"park_ride","osm_type":"way","osm_id":88725310,"@id":"way/88725310"}},{"type":"Feature","id":"way/88725319","geometry":{"type":"Point","coordinates":[4.7877938,43.9222387]},"properties":{"name":"P1","capacity:disabled":"10","access":"customers","fee":"yes","park_ride":"yes","surface":"asphalt","description":"Parking longue dur\u00e9e","amenity":"parking","area_kind":"park_ride","osm_type":"way","osm_id":88725319,"@id":"way/88725319"}},{"type":"Feature","id":"way/131737483","geometry":{"type":"Point","coordinates":[4.7858053,43.9213522]},"properties":{"name":"D\u00e9pose minute","access":"yes","fee":"yes","park_ride":"yes","amenity":"parking","area_kind":"park_ride","osm_type":"way","osm_id":131737483,"@id":"way/131737483"}},{"type":"Feature","id":"way/131737484","geometry":{"type":"Point","coordinates":[4.7841327,43.9213007]},"properties":{"name":"P2","access":"yes","fee":"yes","park_ride":"yes","description":"Parking longue dur\u00e9e","amenity":"parking","area_kind":"park_ride","osm_type":"way","osm_id":131737484,"@id":"way/131737484"}},{"type":"Feature","id":"way/131739227","geometry":{"type":"Point","coordinates":[4.7842308,43.9206215]},"properties":{"name":"P4","access":"yes","fee":"yes","park_ride":"yes","description":"Parking abonn\u00e9s et box","amenity":"parking","area_kind":"park_ride","osm_type":"way","osm_id":131739227,"@id":"way/131739227"}},{"type":"Feature","id":"way/131742685","geometry":{"type":"Point","coordinates":[4.781519,43.9222089]},"properties":{"name":"P6 longue dur\u00e9e","operator":"Effia","capacity":"569","access":"yes","fee":"yes","park_ride":"yes","surface":"asphalt","description":"Parking tarif r\u00e9duit","amenity":"parking","area_kind":"park_ride","osm_type":"way","osm_id":131742685,"@id":"way/131742685"}},{"type":"Feature","id":"way/131744783","geometry":{"type":"Point","coordinates":[4.7878237,43.9202159]},"properties":{"name":"P3 Est","access":"yes","fee":"yes","park_ride":"yes","description":"Parking longue dur\u00e9e","amenity":"parking","area_kind":"park_ride","osm_type":"way","osm_id":131744783,"@id":"way/131744783"}},{"type":"Feature","id":"way/131744784","geometry":{"type":"Point","coordinates":[4.7889375,43.9201996]},"properties":{"name":"P5","access":"customers","fee":"yes","park_ride":"yes","description":"Parking longue dur\u00e9e","amenity":"parking","area_kind":"park_ride","osm_type":"way","osm_id":131744784,"@id":"way/131744784"}},{"type":"Feature","id":"way/137214117","geometry":{"type":"Point","coordinates":[4.7863704,43.9202066]},"properties":{"name":"P4 Est","access":"yes","fee":"yes","park_ride":"yes","description":"Parking abonn\u00e9s et box","amenity":"parking","area_kind":"park_ride","osm_type":"way","osm_id":137214117,"@id":"way/137214117"}},{"type":"Feature","id":"way/137268283","geometry":{"type":"Point","coordinates":[4.7787548,43.923042]},"properties":{"name":"P7 longue dur\u00e9e","capacity":"500","access":"yes","fee":"yes","park_ride":"yes","surface":"asphalt","amenity":"parking","area_kind":"park_ride","osm_type":"way","osm_id":137268283,"@id":"way/137268283"}},{"type":"Feature","id":"way/145122031","geometry":{"type":"Point","coordinates":[4.9953318,44.0372325]},"properties":{"capacity:disabled":"1","park_ride":"yes","amenity":"parking","area_kind":"park_ride","osm_type":"way","osm_id":145122031,"@id":"way/145122031"}},{"type":"Feature","id":"way/156621248","geometry":{"type":"Point","coordinates":[5.0461906,43.9178515]},"properties":{"name":"Parking de la gare L'Isle-sur-la-Sorgue","capacity":":","access":"yes","fee":"yes","park_ride":"yes","surface":"asphalt","covered":"no","lit":"yes","amenity":"parking","area_kind":"park_ride","osm_type":"way","osm_id":156621248,"@id":"way/156621248"}},{"type":"Feature","id":"way/165235834","geometry":{"type":"Point","coordinates":[5.4287406,43.8613558]},"properties":{"access":"yes","fee":"no","park_ride":"yes","surface":"dirt","amenity":"parking","area_kind":"park_ride","osm_type":"way","osm_id":165235834,"@id":"way/165235834"}},{"type":"Feature","id":"way/200446399","geometry":{"type":"Point","coordinates":[4.8291339,44.112369]},"properties":{"name":"Aire d'Orange le Coudoulet","highway":"rest_area","area_kind":"rest_area","osm_type":"way","osm_id":200446399,"@id":"way/200446399"}},{"type":"Feature","id":"way/200446400","geometry":{"type":"Point","coordinates":[4.8299106,44.1107761]},"properties":{"name":"Aire d'Orange-le Gr\u00e8s","highway":"rest_area","area_kind":"rest_area","osm_type":"way","osm_id":200446400,"@id":"way/200446400"}},{"type":"Feature","id":"way/401626027","geometry":{"type":"Point","coordinates":[5.0457318,44.046274]},"properties":{"capacity":"235","capacity:disabled":"11","fee":"no","park_ride":"yes","covered":"no","amenity":"parking","area_kind":"park_ride","osm_type":"way","osm_id":401626027,"@id":"way/401626027"}},{"type":"Feature","id":"way/440173414","geometry":{"type":"Point","coordinates":[4.9801528,43.9684276]},"properties":{"operator":"CD84","capacity":"10","access":"yes","fee":"no","amenity":"car_pooling","area_kind":"car_pooling","osm_type":"way","osm_id":440173414,"@id":"way/440173414"}},{"type":"Feature","id":"way/547409980","geometry":{"type":"Point","coordinates":[4.979401,44.1954894]},"properties":{"amenity":"parking","highway":"rest_area","area_kind":"rest_area","osm_type":"way","osm_id":547409980,"@id":"way/547409980"}},{"type":"Feature","id":"way/569344004","geometry":{"type":"Point","coordinates":[4.888234,44.022286]},"properties":{"name":"Aire du Fournalet","highway":"rest_area","area_kind":"rest_area","osm_type":"way","osm_id":569344004,"@id":"way/569344004"}},{"type":"Feature","id":"way/680505823","geometry":{"type":"Point","coordinates":[5.0248625,43.8344199]},"properties":{"name":"Parking du Grenouillet","capacity":"211","capacity:disabled":"4","access":"yes","fee":"no","park_ride":"yes","surface":"asphalt","amenity":"parking","area_kind":"park_ride","osm_type":"way","osm_id":680505823,"@id":"way/680505823"}},{"type":"Feature","id":"way/703090933","geometry":{"type":"Point","coordinates":[5.5052078,43.6842491]},"properties":{"capacity":"300","capacity:disabled":"6","access":"yes","fee":"no","park_ride":"yes","surface":"asphalt","amenity":"parking","area_kind":"park_ride","osm_type":"way","osm_id":703090933,"@id":"way/703090933"}},{"type":"Feature","id":"way/773026337","geometry":{"type":"Point","coordinates":[5.1050601,44.273201]},"properties":{"highway":"rest_area","area_kind":"rest_area","osm_type":"way","osm_id":773026337,"@id":"way/773026337"}},{"type":"Feature","id":"way/786956638","geometry":{"type":"Point","coordinates":[5.105791,44.2735644]},"properties":{"highway":"rest_area","area_kind":"rest_area","osm_type":"way","osm_id":786956638,"@id":"way/786956638"}},{"type":"Feature","id":"way/805328731","geometry":{"type":"Point","coordinates":[5.0280849,44.0460204]},"properties":{"name":"Parking Covoiturage - Antoine Diouf","operator":"La Cove","capacity":"30","access":"yes","fee":"no","surface":"asphalt","amenity":"car_pooling","area_kind":"car_pooling","osm_type":"way","osm_id":805328731,"@id":"way/805328731"}},{"type":"Feature","id":"way/908890647","geometry":{"type":"Point","coordinates":[5.1746998,44.0761232]},"properties":{"operator":"CD84","surface":"ground","highway":"rest_area","area_kind":"rest_area","osm_type":"way","osm_id":908890647,"@id":"way/908890647"}},{"type":"Feature","id":"way/914261949","geometry":{"type":"Point","coordinates":[4.8221324,44.1365795]},"properties":{"capacity":"197","capacity:disabled":"4","access":"yes","fee":"no","park_ride":"yes","surface":"asphalt","amenity":"parking","area_kind":"park_ride","osm_type":"way","osm_id":914261949,"@id":"way/914261949"}},{"type":"Feature","id":"way/1046938318","geometry":{"type":"Point","coordinates":[5.3963349,43.8813397]},"properties":{"amenity":"car_pooling","area_kind":"car_pooling","osm_type":"way","osm_id":1046938318,"@id":"way/1046938318"}},{"type":"Feature","id":"way/1091158225","geometry":{"type":"Point","coordinates":[4.8981526,44.1130323]},"properties":{"operator":"Mairie de Jonqui\u00e8res","capacity":"3","surface":"asphalt","lit":"yes","amenity":"car_pooling","area_kind":"car_pooling","osm_type":"way","osm_id":1091158225,"@id":"way/1091158225"}},{"type":"Feature","id":"way/1152681321","geometry":{"type":"Point","coordinates":[4.6900896,44.2989455]},"properties":{"name":"Aire de Lapalud","operator":"CCRLP","capacity":"4","opening_hours":"24/7","lit":"yes","amenity":"car_pooling","area_kind":"car_pooling","osm_type":"way","osm_id":1152681321,"@id":"way/1152681321"}},{"type":"Feature","id":"way/1169296552","geometry":{"type":"Point","coordinates":[4.7610188,44.1731236]},"properties":{"name":"Aire de covoiturage de Piolenc","operator":"CD84","capacity":"6","amenity":"car_pooling","area_kind":"car_pooling","osm_type":"way","osm_id":1169296552,"@id":"way/1169296552"}},{"type":"Feature","id":"way/1200998321","geometry":{"type":"Point","coordinates":[4.8395766,44.1190688]},"properties":{"operator":"Carrefour","capacity":"7","access":"customers","surface":"asphalt","amenity":"car_pooling","area_kind":"car_pooling","osm_type":"way","osm_id":1200998321,"@id":"way/1200998321"}},{"type":"Feature","id":"way/1201723645","geometry":{"type":"Point","coordinates":[5.4728845,43.8591486]},"properties":{"operator":"CD84","highway":"rest_area","area_kind":"rest_area","osm_type":"way","osm_id":1201723645,"@id":"way/1201723645"}},{"type":"Feature","id":"way/1201724612","geometry":{"type":"Point","coordinates":[5.2312399,43.7548484]},"properties":{"name":"Aire des truites","highway":"rest_area","area_kind":"rest_area","osm_type":"way","osm_id":1201724612,"@id":"way/1201724612"}},{"type":"Feature","id":"way/1201728125","geometry":{"type":"Point","coordinates":[5.2252444,43.7535423]},"properties":{"operator":"CD84","highway":"rest_area","area_kind":"rest_area","osm_type":"way","osm_id":1201728125,"@id":"way/1201728125"}},{"type":"Feature","id":"way/1201740659","geometry":{"type":"Point","coordinates":[5.0008332,43.97873]},"properties":{"operator":"CD84","highway":"rest_area","area_kind":"rest_area","osm_type":"way","osm_id":1201740659,"@id":"way/1201740659"}},{"type":"Feature","id":"way/1201791582","geometry":{"type":"Point","coordinates":[4.9661767,43.965834]},"properties":{"operator":"CD84","highway":"rest_area","area_kind":"rest_area","osm_type":"way","osm_id":1201791582,"@id":"way/1201791582"}},{"type":"Feature","id":"way/1201791583","geometry":{"type":"Point","coordinates":[4.9684151,43.9657337]},"properties":{"operator":"CD84","highway":"rest_area","area_kind":"rest_area","osm_type":"way","osm_id":1201791583,"@id":"way/1201791583"}},{"type":"Feature","id":"way/1201792666","geometry":{"type":"Point","coordinates":[5.0718108,44.0111894]},"properties":{"operator":"CD84","highway":"rest_area","area_kind":"rest_area","osm_type":"way","osm_id":1201792666,"@id":"way/1201792666"}},{"type":"Feature","id":"way/1201793522","geometry":{"type":"Point","coordinates":[5.0636085,44.0047497]},"properties":{"highway":"rest_area","area_kind":"rest_area","osm_type":"way","osm_id":1201793522,"@id":"way/1201793522"}},{"type":"Feature","id":"way/1201793881","geometry":{"type":"Point","coordinates":[5.0273039,43.9861925]},"properties":{"operator":"CD84","highway":"rest_area","area_kind":"rest_area","osm_type":"way","osm_id":1201793881,"@id":"way/1201793881"}},{"type":"Feature","id":"way/1201794992","geometry":{"type":"Point","coordinates":[5.1477936,44.0467766]},"properties":{"operator":"CD84","highway":"rest_area","area_kind":"rest_area","osm_type":"way","osm_id":1201794992,"@id":"way/1201794992"}},{"type":"Feature","id":"way/1201797070","geometry":{"type":"Point","coordinates":[5.0954913,43.9189715]},"properties":{"operator":"CD84","highway":"rest_area","area_kind":"rest_area","osm_type":"way","osm_id":1201797070,"@id":"way/1201797070"}},{"type":"Feature","id":"way/1201801791","geometry":{"type":"Point","coordinates":[5.083996,43.9278884]},"properties":{"operator":"CD84","highway":"rest_area","area_kind":"rest_area","osm_type":"way","osm_id":1201801791,"@id":"way/1201801791"}},{"type":"Feature","id":"way/1201892624","geometry":{"type":"Point","coordinates":[5.7362977,43.7332246]},"properties":{"operator":"CD84","highway":"rest_area","area_kind":"rest_area","osm_type":"way","osm_id":1201892624,"@id":"way/1201892624"}},{"type":"Feature","id":"way/1201896785","geometry":{"type":"Point","coordinates":[5.7169667,43.7132874]},"properties":{"operator":"CD84","highway":"rest_area","area_kind":"rest_area","osm_type":"way","osm_id":1201896785,"@id":"way/1201896785"}},{"type":"Feature","id":"way/1201897630","geometry":{"type":"Point","coordinates":[5.7185776,43.7017336]},"properties":{"operator":"CD84","highway":"rest_area","area_kind":"rest_area","osm_type":"way","osm_id":1201897630,"@id":"way/1201897630"}},{"type":"Feature","id":"way/1201933425","geometry":{"type":"Point","coordinates":[5.6964284,43.7121014]},"properties":{"highway":"rest_area","area_kind":"rest_area","osm_type":"way","osm_id":1201933425,"@id":"way/1201933425"}},{"type":"Feature","id":"way/1201933765","geometry":{"type":"Point","coordinates":[5.6967278,43.7128849]},"properties":{"operator":"CD84","highway":"rest_area","area_kind":"rest_area","osm_type":"way","osm_id":1201933765,"@id":"way/1201933765"}},{"type":"Feature","id":"way/1201960011","geometry":{"type":"Point","coordinates":[4.9793583,44.195426]},"properties":{"operator":"CD84","highway":"rest_area","area_kind":"rest_area","osm_type":"way","osm_id":1201960011,"@id":"way/1201960011"}},{"type":"Feature","id":"way/1201994047","geometry":{"type":"Point","coordinates":[5.2136301,43.8600486]},"properties":{"operator":"CD84","highway":"rest_area","area_kind":"rest_area","osm_type":"way","osm_id":1201994047,"@id":"way/1201994047"}},{"type":"Feature","id":"way/1202002002","geometry":{"type":"Point","coordinates":[5.3623848,43.8848158]},"properties":{"operator":"CD84","capacity:disabled":"1","highway":"rest_area","area_kind":"rest_area","osm_type":"way","osm_id":1202002002,"@id":"way/1202002002"}},{"type":"Feature","id":"way/1202016996","geometry":{"type":"Point","coordinates":[5.3057267,43.86449]},"properties":{"name":"Pont Julien","operator":"CD84","amenity":"car_pooling","highway":"rest_area","area_kind":"car_pooling","osm_type":"way","osm_id":1202016996,"@id":"way/1202016996"}},{"type":"Feature","id":"way/1202017454","geometry":{"type":"Point","coordinates":[5.2203364,43.8612638]},"properties":{"operator":"CD84","highway":"rest_area","area_kind":"rest_area","osm_type":"way","osm_id":1202017454,"@id":"way/1202017454"}},{"type":"Feature","id":"way/1202057879","geometry":{"type":"Point","coordinates":[5.4285168,43.8791929]},"properties":{"operator":"CD84","highway":"rest_area","area_kind":"rest_area","osm_type":"way","osm_id":1202057879,"@id":"way/1202057879"}},{"type":"Feature","id":"way/1202059707","geometry":{"type":"Point","coordinates":[5.5433394,43.85386]},"properties":{"operator":"CD84","highway":"rest_area","area_kind":"rest_area","osm_type":"way","osm_id":1202059707,"@id":"way/1202059707"}},{"type":"Feature","id":"way/1202062272","geometry":{"type":"Point","coordinates":[5.4555817,43.8427452]},"properties":{"operator":"CD84","highway":"rest_area","area_kind":"rest_area","osm_type":"way","osm_id":1202062272,"@id":"way/1202062272"}},{"type":"Feature","id":"way/1202062477","geometry":{"type":"Point","coordinates":[5.6415719,43.706688]},"properties":{"operator":"CD84","highway":"rest_area","area_kind":"rest_area","osm_type":"way","osm_id":1202062477,"@id":"way/1202062477"}},{"type":"Feature","id":"way/1202063395","geometry":{"type":"Point","coordinates":[5.6319551,43.7052519]},"properties":{"highway":"rest_area","area_kind":"rest_area","osm_type":"way","osm_id":1202063395,"@id":"way/1202063395"}},{"type":"Feature","id":"way/1202064798","geometry":{"type":"Point","coordinates":[5.5218037,43.7104953]},"properties":{"highway":"rest_area","area_kind":"rest_area","osm_type":"way","osm_id":1202064798,"@id":"way/1202064798"}},{"type":"Feature","id":"way/1202065985","geometry":{"type":"Point","coordinates":[5.496694,43.7176047]},"properties":{"operator":"CD84","highway":"rest_area","area_kind":"rest_area","osm_type":"way","osm_id":1202065985,"@id":"way/1202065985"}},{"type":"Feature","id":"way/1202066381","geometry":{"type":"Point","coordinates":[5.2974246,43.7471941]},"properties":{"operator":"CD84","highway":"rest_area","area_kind":"rest_area","osm_type":"way","osm_id":1202066381,"@id":"way/1202066381"}},{"type":"Feature","id":"way/1202067106","geometry":{"type":"Point","coordinates":[5.2998151,43.7475245]},"properties":{"highway":"rest_area","area_kind":"rest_area","osm_type":"way","osm_id":1202067106,"@id":"way/1202067106"}},{"type":"Feature","id":"way/1202091843","geometry":{"type":"Point","coordinates":[5.1767592,43.7415892]},"properties":{"highway":"rest_area","area_kind":"rest_area","osm_type":"way","osm_id":1202091843,"@id":"way/1202091843"}},{"type":"Feature","id":"way/1202093658","geometry":{"type":"Point","coordinates":[5.1759148,43.7408614]},"properties":{"highway":"rest_area","area_kind":"rest_area","osm_type":"way","osm_id":1202093658,"@id":"way/1202093658"}},{"type":"Feature","id":"way/1202105319","geometry":{"type":"Point","coordinates":[4.9174438,44.3731546]},"properties":{"operator":"CD84","highway":"rest_area","area_kind":"rest_area","osm_type":"way","osm_id":1202105319,"@id":"way/1202105319"}},{"type":"Feature","id":"way/1202248201","geometry":{"type":"Point","coordinates":[5.0288472,44.3915162]},"properties":{"operator":"CD84","highway":"rest_area","area_kind":"rest_area","osm_type":"way","osm_id":1202248201,"@id":"way/1202248201"}},{"type":"Feature","id":"way/1202290191","geometry":{"type":"Point","coordinates":[4.8685067,44.098564]},"properties":{"operator":"CD84","highway":"rest_area","area_kind":"rest_area","osm_type":"way","osm_id":1202290191,"@id":"way/1202290191"}},{"type":"Feature","id":"way/1202291054","geometry":{"type":"Point","coordinates":[5.282216,43.9351318]},"properties":{"operator":"CD84","highway":"rest_area","area_kind":"rest_area","osm_type":"way","osm_id":1202291054,"@id":"way/1202291054"}},{"type":"Feature","id":"way/1202347413","geometry":{"type":"Point","coordinates":[4.9456383,44.3266607]},"properties":{"highway":"rest_area","area_kind":"rest_area","osm_type":"way","osm_id":1202347413,"@id":"way/1202347413"}},{"type":"Feature","id":"way/1202350241","geometry":{"type":"Point","coordinates":[4.9580114,44.310321]},"properties":{"lit":"yes","highway":"rest_area","area_kind":"rest_area","osm_type":"way","osm_id":1202350241,"@id":"way/1202350241"}},{"type":"Feature","id":"way/1202367564","geometry":{"type":"Point","coordinates":[4.8514322,44.232]},"properties":{"operator":"CD84","highway":"rest_area","area_kind":"rest_area","osm_type":"way","osm_id":1202367564,"@id":"way/1202367564"}},{"type":"Feature","id":"way/1202372110","geometry":{"type":"Point","coordinates":[4.8869278,44.1484309]},"properties":{"operator":"CD84","highway":"rest_area","area_kind":"rest_area","osm_type":"way","osm_id":1202372110,"@id":"way/1202372110"}},{"type":"Feature","id":"way/1202405650","geometry":{"type":"Point","coordinates":[4.9479614,43.9187514]},"properties":{"operator":"CD84","highway":"rest_area","area_kind":"rest_area","osm_type":"way","osm_id":1202405650,"@id":"way/1202405650"}},{"type":"Feature","id":"way/1202406826","geometry":{"type":"Point","coordinates":[4.9787294,43.9180859]},"properties":{"name":"Aire de repos RD1","operator":"CD84","highway":"rest_area","area_kind":"rest_area","osm_type":"way","osm_id":1202406826,"@id":"way/1202406826"}},{"type":"Feature","id":"way/1202521800","geometry":{"type":"Point","coordinates":[4.9784865,44.1960901]},"properties":{"operator":"CD84","highway":"rest_area","area_kind":"rest_area","osm_type":"way","osm_id":1202521800,"@id":"way/1202521800"}},{"type":"Feature","id":"way/1202541831","geometry":{"type":"Point","coordinates":[4.9428547,44.2556187]},"properties":{"operator":"CD84","highway":"rest_area","area_kind":"rest_area","osm_type":"way","osm_id":1202541831,"@id":"way/1202541831"}},{"type":"Feature","id":"way/1202580261","geometry":{"type":"Point","coordinates":[4.9172554,44.2301145]},"properties":{"operator":"CD84","highway":"rest_area","area_kind":"rest_area","osm_type":"way","osm_id":1202580261,"@id":"way/1202580261"}},{"type":"Feature","id":"way/1202714635","geometry":{"type":"Point","coordinates":[4.9925283,44.2808616]},"properties":{"operator":"CD84","highway":"rest_area","area_kind":"rest_area","osm_type":"way","osm_id":1202714635,"@id":"way/1202714635"}},{"type":"Feature","id":"way/1202737993","geometry":{"type":"Point","coordinates":[4.9274917,43.8892596]},"properties":{"operator":"CD84","highway":"rest_area","area_kind":"rest_area","osm_type":"way","osm_id":1202737993,"@id":"way/1202737993"}},{"type":"Feature","id":"way/1202844747","geometry":{"type":"Point","coordinates":[5.5444434,43.762325]},"properties":{"highway":"rest_area","area_kind":"rest_area","osm_type":"way","osm_id":1202844747,"@id":"way/1202844747"}},{"type":"Feature","id":"way/1203042838","geometry":{"type":"Point","coordinates":[5.0440388,43.8940723]},"properties":{"operator":"CD84","highway":"rest_area","area_kind":"rest_area","osm_type":"way","osm_id":1203042838,"@id":"way/1203042838"}},{"type":"Feature","id":"way/1204455733","geometry":{"type":"Point","coordinates":[5.3734443,44.1815868]},"properties":{"operator":"CD84","highway":"rest_area","area_kind":"rest_area","osm_type":"way","osm_id":1204455733,"@id":"way/1204455733"}},{"type":"Feature","id":"way/1204457048","geometry":{"type":"Point","coordinates":[5.2081132,43.9280472]},"properties":{"operator":"CD84","highway":"rest_area","area_kind":"rest_area","osm_type":"way","osm_id":1204457048,"@id":"way/1204457048"}},{"type":"Feature","id":"way/1204457049","geometry":{"type":"Point","coordinates":[5.2085386,43.9280976]},"properties":{"operator":"CD84","highway":"rest_area","area_kind":"rest_area","osm_type":"way","osm_id":1204457049,"@id":"way/1204457049"}},{"type":"Feature","id":"way/1204491609","geometry":{"type":"Point","coordinates":[5.1811865,43.888416]},"properties":{"operator":"CD84","highway":"rest_area","area_kind":"rest_area","osm_type":"way","osm_id":1204491609,"@id":"way/1204491609"}},{"type":"Feature","id":"way/1204493203","geometry":{"type":"Point","coordinates":[5.192315,43.9211708]},"properties":{"operator":"CD84","highway":"rest_area","area_kind":"rest_area","osm_type":"way","osm_id":1204493203,"@id":"way/1204493203"}},{"type":"Feature","id":"way/1204580848","geometry":{"type":"Point","coordinates":[5.0269839,43.9507341]},"properties":{"highway":"rest_area","area_kind":"rest_area","osm_type":"way","osm_id":1204580848,"@id":"way/1204580848"}},{"type":"Feature","id":"way/1204583693","geometry":{"type":"Point","coordinates":[5.0855734,44.0801959]},"properties":{"operator":"CD84","highway":"rest_area","area_kind":"rest_area","osm_type":"way","osm_id":1204583693,"@id":"way/1204583693"}},{"type":"Feature","id":"way/1204583950","geometry":{"type":"Point","coordinates":[5.0937602,44.0876581]},"properties":{"operator":"CD84","highway":"rest_area","area_kind":"rest_area","osm_type":"way","osm_id":1204583950,"@id":"way/1204583950"}},{"type":"Feature","id":"way/1204659741","geometry":{"type":"Point","coordinates":[5.0502845,43.9474005]},"properties":{"highway":"rest_area","area_kind":"rest_area","osm_type":"way","osm_id":1204659741,"@id":"way/1204659741"}},{"type":"Feature","id":"way/1204672554","geometry":{"type":"Point","coordinates":[5.0417433,43.9608875]},"properties":{"operator":"CD84","highway":"rest_area","area_kind":"rest_area","osm_type":"way","osm_id":1204672554,"@id":"way/1204672554"}},{"type":"Feature","id":"way/1204676546","geometry":{"type":"Point","coordinates":[5.0425446,43.9591707]},"properties":{"highway":"rest_area","area_kind":"rest_area","osm_type":"way","osm_id":1204676546,"@id":"way/1204676546"}},{"type":"Feature","id":"way/1204677304","geometry":{"type":"Point","coordinates":[4.9890371,43.9721375]},"properties":{"operator":"CD84","highway":"rest_area","area_kind":"rest_area","osm_type":"way","osm_id":1204677304,"@id":"way/1204677304"}},{"type":"Feature","id":"way/1205402546","geometry":{"type":"Point","coordinates":[5.3553179,44.0708969]},"properties":{"highway":"rest_area","area_kind":"rest_area","osm_type":"way","osm_id":1205402546,"@id":"way/1205402546"}},{"type":"Feature","id":"way/1205407317","geometry":{"type":"Point","coordinates":[5.2513879,44.0641562]},"properties":{"operator":"CD84","highway":"rest_area","area_kind":"rest_area","osm_type":"way","osm_id":1205407317,"@id":"way/1205407317"}},{"type":"Feature","id":"way/1205446069","geometry":{"type":"Point","coordinates":[5.1515163,44.1039399]},"properties":{"operator":"CD84","highway":"rest_area","area_kind":"rest_area","osm_type":"way","osm_id":1205446069,"@id":"way/1205446069"}},{"type":"Feature","id":"way/1205449485","geometry":{"type":"Point","coordinates":[5.1847516,43.9843058]},"properties":{"operator":"CD84","highway":"rest_area","area_kind":"rest_area","osm_type":"way","osm_id":1205449485,"@id":"way/1205449485"}},{"type":"Feature","id":"way/1205485068","geometry":{"type":"Point","coordinates":[5.0704345,44.1001848]},"properties":{"operator":"CD84","highway":"rest_area","area_kind":"rest_area","osm_type":"way","osm_id":1205485068,"@id":"way/1205485068"}},{"type":"Feature","id":"way/1205506371","geometry":{"type":"Point","coordinates":[5.0442572,44.1335024]},"properties":{"operator":"CD84","highway":"rest_area","area_kind":"rest_area","osm_type":"way","osm_id":1205506371,"@id":"way/1205506371"}},{"type":"Feature","id":"way/1205911333","geometry":{"type":"Point","coordinates":[5.1872499,44.1860617]},"properties":{"operator":"CD84","highway":"rest_area","area_kind":"rest_area","osm_type":"way","osm_id":1205911333,"@id":"way/1205911333"}},{"type":"Feature","id":"way/1205922673","geometry":{"type":"Point","coordinates":[5.2770953,44.1037908]},"properties":{"operator":"CD84","highway":"rest_area","area_kind":"rest_area","osm_type":"way","osm_id":1205922673,"@id":"way/1205922673"}},{"type":"Feature","id":"way/1206042097","geometry":{"type":"Point","coordinates":[4.9961823,44.1287684]},"properties":{"operator":"CD84","highway":"rest_area","area_kind":"rest_area","osm_type":"way","osm_id":1206042097,"@id":"way/1206042097"}},{"type":"Feature","id":"way/1206066933","geometry":{"type":"Point","coordinates":[5.0548318,44.1519814]},"properties":{"operator":"CD84","highway":"rest_area","area_kind":"rest_area","osm_type":"way","osm_id":1206066933,"@id":"way/1206066933"}},{"type":"Feature","id":"way/1206101983","geometry":{"type":"Point","coordinates":[5.065641,44.1681368]},"properties":{"name":"CD84","highway":"rest_area","area_kind":"rest_area","osm_type":"way","osm_id":1206101983,"@id":"way/1206101983"}},{"type":"Feature","id":"way/1206737352","geometry":{"type":"Point","coordinates":[5.3016584,44.1047619]},"properties":{"operator":"CD84","highway":"rest_area","area_kind":"rest_area","osm_type":"way","osm_id":1206737352,"@id":"way/1206737352"}},{"type":"Feature","id":"way/1208073971","geometry":{"type":"Point","coordinates":[4.7952784,44.1341621]},"properties":{"name":"Parking de covoiturage","operator":"Vinci Autoroute","capacity":"84","capacity:disabled":"2","amenity":"car_pooling","area_kind":"car_pooling","osm_type":"way","osm_id":1208073971,"@id":"way/1208073971"}},{"type":"Feature","id":"way/1208163627","geometry":{"type":"Point","coordinates":[5.0013384,44.1237437]},"properties":{"operator":"CD84","highway":"rest_area","area_kind":"rest_area","osm_type":"way","osm_id":1208163627,"@id":"way/1208163627"}},{"type":"Feature","id":"way/1208164151","geometry":{"type":"Point","coordinates":[5.0030169,44.1234262]},"properties":{"operator":"CD84","highway":"rest_area","area_kind":"rest_area","osm_type":"way","osm_id":1208164151,"@id":"way/1208164151"}},{"type":"Feature","id":"way/1208164477","geometry":{"type":"Point","coordinates":[4.9981326,44.1267153]},"properties":{"operator":"CD84","highway":"rest_area","area_kind":"rest_area","osm_type":"way","osm_id":1208164477,"@id":"way/1208164477"}},{"type":"Feature","id":"way/1208165672","geometry":{"type":"Point","coordinates":[5.0075881,44.1831929]},"properties":{"operator":"CD84","highway":"rest_area","area_kind":"rest_area","osm_type":"way","osm_id":1208165672,"@id":"way/1208165672"}},{"type":"Feature","id":"way/1208166196","geometry":{"type":"Point","coordinates":[5.0078939,44.1820557]},"properties":{"operator":"CD84","highway":"rest_area","area_kind":"rest_area","osm_type":"way","osm_id":1208166196,"@id":"way/1208166196"}},{"type":"Feature","id":"way/1209196474","geometry":{"type":"Point","coordinates":[5.1156204,44.2610179]},"properties":{"operator":"CD84","highway":"rest_area","area_kind":"rest_area","osm_type":"way","osm_id":1209196474,"@id":"way/1209196474"}},{"type":"Feature","id":"way/1214338308","geometry":{"type":"Point","coordinates":[5.097876,44.2178614]},"properties":{"operator":"CD84","highway":"rest_area","area_kind":"rest_area","osm_type":"way","osm_id":1214338308,"@id":"way/1214338308"}},{"type":"Feature","id":"way/1214906857","geometry":{"type":"Point","coordinates":[5.2815219,43.8143773]},"properties":{"highway":"rest_area","area_kind":"rest_area","osm_type":"way","osm_id":1214906857,"@id":"way/1214906857"}},{"type":"Feature","id":"way/1216245193","geometry":{"type":"Point","coordinates":[5.0720736,44.2447512]},"properties":{"name":"Parking Fran\u00e7ois Cevert","capacity":"8","amenity":"car_pooling","area_kind":"car_pooling","osm_type":"way","osm_id":1216245193,"@id":"way/1216245193"}},{"type":"Feature","id":"way/1216268865","geometry":{"type":"Point","coordinates":[5.3390854,43.8797362]},"properties":{"name":"Le Ch\u00eane","capacity":"10","amenity":"car_pooling","area_kind":"car_pooling","osm_type":"way","osm_id":1216268865,"@id":"way/1216268865"}},{"type":"Feature","id":"way/1216277959","geometry":{"type":"Point","coordinates":[5.1401654,43.8674378]},"properties":{"capacity":"5","amenity":"car_pooling","area_kind":"car_pooling","osm_type":"way","osm_id":1216277959,"@id":"way/1216277959"}},{"type":"Feature","id":"way/1216277960","geometry":{"type":"Point","coordinates":[5.1399415,43.8674391]},"properties":{"capacity":"5","amenity":"car_pooling","area_kind":"car_pooling","osm_type":"way","osm_id":1216277960,"@id":"way/1216277960"}},{"type":"Feature","id":"way/1216411171","geometry":{"type":"Point","coordinates":[5.0415006,43.8864695]},"properties":{"name":"Les Jonquiers","operator":"CD84","capacity":"9","amenity":"car_pooling","area_kind":"car_pooling","osm_type":"way","osm_id":1216411171,"@id":"way/1216411171"}},{"type":"Feature","id":"way/1216503437","geometry":{"type":"Point","coordinates":[5.4459148,43.7049902]},"properties":{"name":"Le Vieux Ch\u00e2teau","operator":"CD84","capacity":"9","amenity":"car_pooling","area_kind":"car_pooling","osm_type":"way","osm_id":1216503437,"@id":"way/1216503437"}},{"type":"Feature","id":"way/1216895184","geometry":{"type":"Point","coordinates":[4.888174,44.0404729]},"properties":{"capacity":"10","amenity":"car_pooling","area_kind":"car_pooling","osm_type":"way","osm_id":1216895184,"@id":"way/1216895184"}},{"type":"Feature","id":"way/1216897648","geometry":{"type":"Point","coordinates":[5.0346952,44.0848094]},"properties":{"operator":"CD84","highway":"rest_area","area_kind":"rest_area","osm_type":"way","osm_id":1216897648,"@id":"way/1216897648"}},{"type":"Feature","id":"way/1216899311","geometry":{"type":"Point","coordinates":[5.229838,43.8591863]},"properties":{"highway":"rest_area","area_kind":"rest_area","osm_type":"way","osm_id":1216899311,"@id":"way/1216899311"}},{"type":"Feature","id":"way/1219781607","geometry":{"type":"Point","coordinates":[4.8944821,43.909539]},"properties":{"name":"P+R Agroparc","capacity":"320","capacity:disabled":"9","access":"yes","fee":"no","park_ride":"yes","surface":"asphalt","amenity":"parking","area_kind":"park_ride","osm_type":"way","osm_id":1219781607,"@id":"way/1219781607"}},{"type":"Feature","id":"way/1226938428","geometry":{"type":"Point","coordinates":[5.3704064,44.1419428]},"properties":{"operator":"CD84","highway":"rest_area","area_kind":"rest_area","osm_type":"way","osm_id":1226938428,"@id":"way/1226938428"}},{"type":"Feature","id":"way/1226939126","geometry":{"type":"Point","coordinates":[5.3664301,44.1458684]},"properties":{"highway":"rest_area","area_kind":"rest_area","osm_type":"way","osm_id":1226939126,"@id":"way/1226939126"}},{"type":"Feature","id":"way/1226939808","geometry":{"type":"Point","coordinates":[5.3638661,44.1457282]},"properties":{"highway":"rest_area","area_kind":"rest_area","osm_type":"way","osm_id":1226939808,"@id":"way/1226939808"}},{"type":"Feature","id":"way/1226940202","geometry":{"type":"Point","coordinates":[5.3595429,44.1495989]},"properties":{"operator":"CD84","highway":"rest_area","area_kind":"rest_area","osm_type":"way","osm_id":1226940202,"@id":"way/1226940202"}},{"type":"Feature","id":"way/1226940858","geometry":{"type":"Point","coordinates":[5.355663,44.1510334]},"properties":{"operator":"CD84","highway":"rest_area","area_kind":"rest_area","osm_type":"way","osm_id":1226940858,"@id":"way/1226940858"}},{"type":"Feature","id":"way/1227322596","geometry":{"type":"Point","coordinates":[4.9939536,44.3877781]},"properties":{"capacity":"11","amenity":"car_pooling","area_kind":"car_pooling","osm_type":"way","osm_id":1227322596,"@id":"way/1227322596"}},{"type":"Feature","id":"way/1229240589","geometry":{"type":"Point","coordinates":[5.1647273,43.8418906]},"properties":{"highway":"rest_area","area_kind":"rest_area","osm_type":"way","osm_id":1229240589,"@id":"way/1229240589"}},{"type":"Feature","id":"way/1239374959","geometry":{"type":"Point","coordinates":[5.0072247,43.882635]},"properties":{"operator":"CD84","amenity":"car_pooling","area_kind":"car_pooling","osm_type":"way","osm_id":1239374959,"@id":"way/1239374959"}},{"type":"Feature","id":"way/1239397284","geometry":{"type":"Point","coordinates":[5.3149877,43.8267297]},"properties":{"operator":"CD84","highway":"rest_area","area_kind":"rest_area","osm_type":"way","osm_id":1239397284,"@id":"way/1239397284"}},{"type":"Feature","id":"way/1240115170","geometry":{"type":"Point","coordinates":[5.299884,43.9111977]},"properties":{"name":"Aire du Sage","highway":"rest_area","area_kind":"rest_area","osm_type":"way","osm_id":1240115170,"@id":"way/1240115170"}},{"type":"Feature","id":"way/1254813175","geometry":{"type":"Point","coordinates":[5.0014342,43.9181806]},"properties":{"highway":"rest_area","area_kind":"rest_area","osm_type":"way","osm_id":1254813175,"@id":"way/1254813175"}},{"type":"Feature","id":"way/1254813178","geometry":{"type":"Point","coordinates":[5.0022039,43.917158]},"properties":{"highway":"rest_area","area_kind":"rest_area","osm_type":"way","osm_id":1254813178,"@id":"way/1254813178"}},{"type":"Feature","id":"way/1270051326","geometry":{"type":"Point","coordinates":[5.1730738,44.121838]},"properties":{"name":"P4 - Gare routi\u00e8re","capacity":"10","amenity":"car_pooling","area_kind":"car_pooling","osm_type":"way","osm_id":1270051326,"@id":"way/1270051326"}},{"type":"Feature","id":"way/1286904058","geometry":{"type":"Point","coordinates":[5.0382581,44.0611983]},"properties":{"name":"Aire de la Route d'orange","capacity":"30","amenity":"car_pooling","area_kind":"car_pooling","osm_type":"way","osm_id":1286904058,"@id":"way/1286904058"}},{"type":"Feature","id":"way/1343436001","geometry":{"type":"Point","coordinates":[4.8877926,43.9830125]},"properties":{"name":"Parking de covoiturage Avignon Nord","operator":"Vinci Autoroutes","capacity":"114","capacity:disabled":"3","fee":"no","opening_hours":"24/7","surface":"asphalt","lit":"yes","amenity":"car_pooling","area_kind":"car_pooling","osm_type":"way","osm_id":1343436001,"@id":"way/1343436001"}},{"type":"Feature","id":"way/1361462131","geometry":{"type":"Point","coordinates":[5.1388691,44.0540049]},"properties":{"amenity":"car_pooling","area_kind":"car_pooling","osm_type":"way","osm_id":1361462131,"@id":"way/1361462131"}},{"type":"Feature","id":"way/1361463998","geometry":{"type":"Point","coordinates":[4.9273522,44.3968854]},"properties":{"amenity":"car_pooling","area_kind":"car_pooling","osm_type":"way","osm_id":1361463998,"@id":"way/1361463998"}},{"type":"Feature","id":"way/1361464330","geometry":{"type":"Point","coordinates":[4.9504861,44.1585371]},"properties":{"amenity":"car_pooling","area_kind":"car_pooling","osm_type":"way","osm_id":1361464330,"@id":"way/1361464330"}},{"type":"Feature","id":"way/1361465275","geometry":{"type":"Point","coordinates":[5.0309823,43.9287501]},"properties":{"amenity":"car_pooling","area_kind":"car_pooling","osm_type":"way","osm_id":1361465275,"@id":"way/1361465275"}},{"type":"Feature","id":"way/1482912285","geometry":{"type":"Point","coordinates":[5.406321,43.7668972]},"properties":{"name":"Aire de repos de vaugines","operator":"CD84","highway":"rest_area","area_kind":"rest_area","osm_type":"way","osm_id":1482912285,"@id":"way/1482912285"}},{"type":"Feature","id":"way/1534323249","geometry":{"type":"Point","coordinates":[4.7854629,44.2686817]},"properties":{"operator":"CD84","highway":"rest_area","area_kind":"rest_area","osm_type":"way","osm_id":1534323249,"@id":"way/1534323249"}},{"type":"Feature","id":"way/1544093184","geometry":{"type":"Point","coordinates":[5.2462539,44.0141894]},"properties":{"highway":"rest_area","area_kind":"rest_area","osm_type":"way","osm_id":1544093184,"@id":"way/1544093184"}}],"_cache":{"generated_at":"2026-07-25T23:25:47.786307+00:00","endpoint":"https://overpass-api.de/api/interpreter","user_agent":"dataroads-FR84/0.10.0 (https://github.com/thepriben/dataroads-FR84)","source_format":"overpass-json","source_elements":243}}
