{
  "type": "FeatureCollection",
  "_cache": {
    "source_name": "Recensement manuel — CD84 / Vision-Environnement",
    "source_url": "https://github.com/thepriben/dataroads-FR84",
    "generated_at": "2026-06-12T01:40:00.000Z"
  },
  "features": [
    {
      "type": "Feature",
      "geometry": { "type": "Point", "coordinates": [4.91713, 43.8914] },
      "properties": {
        "id": "bonpas-site-2-1",
        "name": "Bonpas — site 2-1",
        "category": "traffic",
        "source": "CD84 / webvia.fr",
        "embed_type": "video",
        "embed_url": "https://ncs1.webvia.fr/ncs_cd84/getSharedVideo.do?token=c56b0f339f58ffd7",
        "refresh_ms": 4000
      }
    },
    {
      "type": "Feature",
      "geometry": { "type": "Point", "coordinates": [4.91708, 43.8915] },
      "properties": {
        "id": "bonpas-site-2-2",
        "name": "Bonpas — site 2-2",
        "category": "traffic",
        "source": "CD84 / webvia.fr",
        "embed_type": "video",
        "embed_url": "https://ncs1.webvia.fr/ncs_cd84/getSharedVideo.do?token=72d8e28adb12c93c",
        "refresh_ms": 4000
      }
    },
    {
      "type": "Feature",
      "geometry": { "type": "Point", "coordinates": [4.93383, 43.8872] },
      "properties": {
        "id": "bonpas-d900-site-4",
        "name": "Bonpas — D900 site 4",
        "category": "traffic",
        "source": "CD84 / webvia.fr",
        "embed_type": "video",
        "embed_url": "https://ncs1.webvia.fr/ncs_cd84/getSharedVideo.do?token=5c01f79441526aa3",
        "refresh_ms": 4000
      }
    },
    {
      "type": "Feature",
      "geometry": { "type": "Point", "coordinates": [4.90199, 43.8937] },
      "properties": {
        "id": "bonpas-d907-site-1",
        "name": "Bonpas — D907 site 1",
        "category": "traffic",
        "source": "CD84 / webvia.fr",
        "embed_type": "video",
        "embed_url": "https://ncs1.webvia.fr/ncs_cd84/getSharedVideo.do?token=77b3611d70699304",
        "refresh_ms": 4000
      }
    },
    {
      "type": "Feature",
      "geometry": { "type": "Point", "coordinates": [5.2663, 44.1790] },
      "properties": {
        "id": "mont-serein",
        "name": "Mont Serein",
        "category": "mountain",
        "source": "Vision-Environnement",
        "embed_type": "hls",
        "embed_url": "https://visionenvironnement.quanteec.com/contents/encodings/live/78e0f372-db6f-420e-746c-7561-6665-64-b4d7-fc979b816efed/master.m3u8",
        "embed_fallback_url": "https://s1.vision-environnement.com/live/modules/timelapse/timelapse/montserein.mp4",
        "refresh_ms": 30000
      }
    }
  ]
}
